{
  "norad_id": 64157,
  "name": "STARLINK-34343",
  "history": [
    {
      "epoch": "2026-03-28T22:16:16.370400",
      "apogee_km": 550.3296072704588,
      "perigee_km": 548.6804128135473,
      "latitude_deg": -49.527679334300174,
      "longitude_deg": -35.21514400001615,
      "semi_major_axis_km": 6927.642010042003,
      "eccentricity": 0.00011903,
      "inclination_deg": 97.6028,
      "raan_deg": 140.4975,
      "arg_perigee_deg": 96.3272,
      "mean_anomaly_deg": 263.809,
      "mean_motion_rev_day": 15.05652003
    },
    {
      "epoch": "2026-03-29T04:39:04.269024",
      "apogee_km": 550.3195141552433,
      "perigee_km": 548.652728032308,
      "latitude_deg": 83.8740562230707,
      "longitude_deg": -9.695256640203297,
      "semi_major_axis_km": 6927.623121093775,
      "eccentricity": 0.0001203,
      "inclination_deg": 97.6027,
      "raan_deg": 140.7595,
      "arg_perigee_deg": 95.6248,
      "mean_anomaly_deg": 264.5115,
      "mean_motion_rev_day": 15.05658161
    }
  ]
}